[
    {
        "Altitude(m)": 554605.4457696138,
        "Argument of Periapsis(deg)": 0.019868973332140504,
        "Eccentricity": 0.0,
        "Inclination(deg)": 53.0,
        "Latitude(deg)": -2.5067837098357706,
        "Longitude(deg)": 79.49991873620651,
        "Mean Anomaly(deg)": 183.00207860273275,
        "RAAN(deg)": -0.029569894415949535,
        "Satellite Name": "Starlink Shell 1 9",
        "Satellite Number": 9,
        "Semi-Major Axis(m)": 6931778.249405717,
        "Time(s)": 570
    },
    {
        "Altitude(m)": 554685.9744011137,
        "Argument of Periapsis(deg)": 0.02021755181165174,
        "Eccentricity": 0.0,
        "Inclination(deg)": 53.0,
        "Latitude(deg)": -3.0103265285777994,
        "Longitude(deg)": 79.83611498199103,
        "Mean Anomaly(deg)": 183.62890980628944,
        "RAAN(deg)": -0.030088664493422325,
        "Satellite Name": "Starlink Shell 1 9",
        "Satellite Number": 9,
        "Semi-Major Axis(m)": 6931778.249405717,
        "Time(s)": 580
    },
    {
        "Altitude(m)": 554769.2273289536,
        "Argument of Periapsis(deg)": 0.020566130291162974,
        "Eccentricity": 0.0,
        "Inclination(deg)": 53.0,
        "Latitude(deg)": -3.5137226419903924,
        "Longitude(deg)": 80.17264979940666,
        "Mean Anomaly(deg)": 184.2557410098462,
        "RAAN(deg)": -0.03060743457089513,
        "Satellite Name": "Starlink Shell 1 9",
        "Satellite Number": 9,
        "Semi-Major Axis(m)": 6931778.249405717,
        "Time(s)": 590
    },
    {
        "Altitude(m)": 554855.1878431272,
        "Argument of Periapsis(deg)": 0.020914708770674213,
        "Eccentricity": 0.0,
        "Inclination(deg)": 53.0,
        "Latitude(deg)": -4.016948936679697,
        "Longitude(deg)": 80.50958120414967,
        "Mean Anomaly(deg)": 184.8825722134029,
        "RAAN(deg)": -0.031126204648367926,
        "Satellite Name": "Starlink Shell 1 9",
        "Satellite Number": 9,
        "Semi-Major Axis(m)": 6931778.249405717,
        "Time(s)": 600
    },
    {
        "Altitude(m)": 554943.8379036733,
        "Argument of Periapsis(deg)": 0.021263287250185448,
        "Eccentricity": 0.0,
        "Inclination(deg)": 53.0,
        "Latitude(deg)": -4.519982221010794,
        "Longitude(deg)": 80.84696738248502,
        "Mean Anomaly(deg)": 185.5094034169596,
        "RAAN(deg)": -0.03164497472584072,
        "Satellite Name": "Starlink Shell 1 9",
        "Satellite Number": 9,
        "Semi-Major Axis(m)": 6931778.249405717,
        "Time(s)": 610
    },
    {
        "Altitude(m)": 555035.1581469179,
        "Argument of Periapsis(deg)": 0.021611865729696686,
        "Eccentricity": 0.0,
        "Inclination(deg)": 53.0,
        "Latitude(deg)": -5.022799213133903,
        "Longitude(deg)": 81.18486722093009,
        "Mean Anomaly(deg)": 186.13623462051632,
        "RAAN(deg)": -0.03216374480331353,
        "Satellite Name": "Starlink Shell 1 9",
        "Satellite Number": 9,
        "Semi-Major Axis(m)": 6931778.249405717,
        "Time(s)": 620
    },
    {
        "Altitude(m)": 555129.127892409,
        "Argument of Periapsis(deg)": 0.02196044420920792,
        "Eccentricity": 0.0,
        "Inclination(deg)": 53.0,
        "Latitude(deg)": -5.525376528922868,
        "Longitude(deg)": 81.52333915501967,
        "Mean Anomaly(deg)": 186.76306582407307,
        "RAAN(deg)": -0.03268251488078632,
        "Satellite Name": "Starlink Shell 1 9",
        "Satellite Number": 9,
        "Semi-Major Axis(m)": 6931778.249405717,
        "Time(s)": 630
    },
    {
        "Altitude(m)": 555225.7251504912,
        "Argument of Periapsis(deg)": 0.02230902268871916,
        "Eccentricity": 0.0,
        "Inclination(deg)": 53.0,
        "Latitude(deg)": -6.02769066981451,
        "Longitude(deg)": 81.86244253958509,
        "Mean Anomaly(deg)": 187.38989702762973,
        "RAAN(deg)": -0.03320128495825912,
        "Satellite Name": "Starlink Shell 1 9",
        "Satellite Number": 9,
        "Semi-Major Axis(m)": 6931778.249405717,
        "Time(s)": 640
    },
    {
        "Altitude(m)": 555324.9266305297,
        "Argument of Periapsis(deg)": 0.022657601168230398,
        "Eccentricity": 0.0,
        "Inclination(deg)": 53.0,
        "Latitude(deg)": -6.52971801053737,
        "Longitude(deg)": 82.20223649764037,
        "Mean Anomaly(deg)": 188.01672823118648,
        "RAAN(deg)": -0.03372005503573192,
        "Satellite Name": "Starlink Shell 1 9",
        "Satellite Number": 9,
        "Semi-Major Axis(m)": 6931778.249405717,
        "Time(s)": 650
    },
    {
        "Altitude(m)": 555426.7077498146,
        "Argument of Periapsis(deg)": 0.023006179647741636,
        "Eccentricity": 0.0,
        "Inclination(deg)": 53.0,
        "Latitude(deg)": -7.031434786718542,
        "Longitude(deg)": 82.54278045030804,
        "Mean Anomaly(deg)": 188.64355943474317,
        "RAAN(deg)": -0.03423882511320472,
        "Satellite Name": "Starlink Shell 1 9",
        "Satellite Number": 9,
        "Semi-Major Axis(m)": 6931778.249405717,
        "Time(s)": 660
    },
    {
        "Altitude(m)": 555531.0426430684,
        "Argument of Periapsis(deg)": 0.023354758127252868,
        "Eccentricity": 0.0,
        "Inclination(deg)": 53.0,
        "Latitude(deg)": -7.532817082356086,
        "Longitude(deg)": 82.88413464681695,
        "Mean Anomaly(deg)": 189.2703906382999,
        "RAAN(deg)": -0.03475759519067752,
        "Satellite Name": "Starlink Shell 1 9",
        "Satellite Number": 9,
        "Semi-Major Axis(m)": 6931778.249405717,
        "Time(s)": 670
    },
    {
        "Altitude(m)": 555637.9041726382,
        "Argument of Periapsis(deg)": 0.023703336606764106,
        "Eccentricity": 0.0,
        "Inclination(deg)": 53.0,
        "Latitude(deg)": -8.03384081714715,
        "Longitude(deg)": 83.22635918170414,
        "Mean Anomaly(deg)": 189.8972218418566,
        "RAAN(deg)": -0.03527636526815032,
        "Satellite Name": "Starlink Shell 1 9",
        "Satellite Number": 9,
        "Semi-Major Axis(m)": 6931778.249405717,
        "Time(s)": 680
    },
    {
        "Altitude(m)": 555747.2639392711,
        "Argument of Periapsis(deg)": 0.024051915086275345,
        "Eccentricity": 0.0,
        "Inclination(deg)": 53.0,
        "Latitude(deg)": -8.534481733658279,
        "Longitude(deg)": 83.56951452496939,
        "Mean Anomaly(deg)": 190.52405304541335,
        "RAAN(deg)": -0.03579513534562312,
        "Satellite Name": "Starlink Shell 1 9",
        "Satellite Number": 9,
        "Semi-Major Axis(m)": 6931778.249405717,
        "Time(s)": 690
    },
    {
        "Altitude(m)": 555859.092293577,
        "Argument of Periapsis(deg)": 0.024400493565786583,
        "Eccentricity": 0.0,
        "Inclination(deg)": 53.0,
        "Latitude(deg)": -9.034715384327054,
        "Longitude(deg)": 83.91366205231196,
        "Mean Anomaly(deg)": 191.15088424897007,
        "RAAN(deg)": -0.03631390542309591,
        "Satellite Name": "Starlink Shell 1 9",
        "Satellite Number": 9,
        "Semi-Major Axis(m)": 6931778.249405717,
        "Time(s)": 700
    },
    {
        "Altitude(m)": 555973.3583480716,
        "Argument of Periapsis(deg)": 0.024749072045297815,
        "Eccentricity": 0.0,
        "Inclination(deg)": 53.0,
        "Latitude(deg)": -9.534517118283496,
        "Longitude(deg)": 84.25886306257729,
        "Mean Anomaly(deg)": 191.77771545252676,
        "RAAN(deg)": -0.036832675500568714,
        "Satellite Name": "Starlink Shell 1 9",
        "Satellite Number": 9,
        "Semi-Major Axis(m)": 6931778.249405717,
        "Time(s)": 710
    },
    {
        "Altitude(m)": 556090.029989843,
        "Argument of Periapsis(deg)": 0.025097650524809053,
        "Eccentricity": 0.0,
        "Inclination(deg)": 53.0,
        "Latitude(deg)": -10.033862067978601,
        "Longitude(deg)": 84.60517930816184,
        "Mean Anomaly(deg)": 192.40454665608348,
        "RAAN(deg)": -0.03735144557804152,
        "Satellite Name": "Starlink Shell 1 9",
        "Satellite Number": 9,
        "Semi-Major Axis(m)": 6931778.249405717,
        "Time(s)": 720
    },
    {
        "Altitude(m)": 556209.0738938458,
        "Argument of Periapsis(deg)": 0.02544622900432029,
        "Eccentricity": 0.0,
        "Inclination(deg)": 53.0,
        "Latitude(deg)": -10.532725135607995,
        "Longitude(deg)": 84.95267352550006,
        "Mean Anomaly(deg)": 193.0313778596402,
        "RAAN(deg)": -0.037870215655514315,
        "Satellite Name": "Starlink Shell 1 9",
        "Satellite Number": 9,
        "Semi-Major Axis(m)": 6931778.249405717,
        "Time(s)": 730
    },
    {
        "Altitude(m)": 556330.455536782,
        "Argument of Periapsis(deg)": 0.02579480748383153,
        "Eccentricity": 0.0,
        "Inclination(deg)": 53.0,
        "Latitude(deg)": -11.031080979319942,
        "Longitude(deg)": 85.30140845276144,
        "Mean Anomaly(deg)": 193.6582090631969,
        "RAAN(deg)": -0.038388985732987116,
        "Satellite Name": "Starlink Shell 1 9",
        "Satellite Number": 9,
        "Semi-Major Axis(m)": 6931778.249405717,
        "Time(s)": 740
    },
    {
        "Altitude(m)": 556454.1392115761,
        "Argument of Periapsis(deg)": 0.026143385963342765,
        "Eccentricity": 0.0,
        "Inclination(deg)": 53.0,
        "Latitude(deg)": -11.528903999193936,
        "Longitude(deg)": 85.65144736049895,
        "Mean Anomaly(deg)": 194.28504026675364,
        "RAAN(deg)": -0.03890775581045992,
        "Satellite Name": "Starlink Shell 1 9",
        "Satellite Number": 9,
        "Semi-Major Axis(m)": 6931778.249405717,
        "Time(s)": 750
    }
]